MALLIGYONG-1            
1 58400U 23179A   23349.16270156  .00005144  00000+0  23128-3 0  9990
2 58400  97.4261 233.6279 0015270 189.7979 170.2962 15.21462097  3585
